[{"CCSDS_OMM_VERS":"3.0","COMMENT":"GENERATED VIA SPACE-TRACK.ORG API","CREATION_DATE":"2026-05-14T10:30:29","ORIGINATOR":"18 SPCS","OBJECT_NAME":"BEIDOU 3 IGSO-1","OBJECT_ID":"2019-023A","CENTER_NAME":"EARTH","REF_FRAME":"TEME","TIME_SYSTEM":"UTC","MEAN_ELEMENT_THEORY":"SGP4","EPOCH":"2026-05-12T18:25:31.496160","MEAN_MOTION":"1.00250503","ECCENTRICITY":"0.00238565","INCLINATION":"58.6468","RA_OF_ASC_NODE":"38.0171","ARG_OF_PERICENTER":"234.3090","MEAN_ANOMALY":"349.8662","EPHEMERIS_TYPE":"0","CLASSIFICATION_TYPE":"U","NORAD_CAT_ID":"44204","ELEMENT_SET_NO":"999","REV_AT_EPOCH":"685","BSTAR":"0.00000000000000","MEAN_MOTION_DOT":"-0.00000227","MEAN_MOTION_DDOT":"0.0000000000000","SEMIMAJOR_AXIS":"42170.699","PERIOD":"1436.402","APOAPSIS":"35893.168","PERIAPSIS":"35691.960","OBJECT_TYPE":"PAYLOAD","RCS_SIZE":"LARGE","COUNTRY_CODE":"PRC","LAUNCH_DATE":"2019-04-20","SITE":"XSC","DECAY_DATE":null,"FILE":"5196435","GP_ID":"323339289","TLE_LINE0":"0 BEIDOU 3 IGSO-1","TLE_LINE1":"1 44204U 19023A   26132.76772565 -.00000227  00000-0  00000-0 0  9990","TLE_LINE2":"2 44204  58.6468  38.0171 0023856 234.3090 349.8662  1.00250503  6851"},{"CCSDS_OMM_VERS":"3.0","COMMENT":"GENERATED VIA SPACE-TRACK.ORG API","CREATION_DATE":"2026-05-14T07:06:49","ORIGINATOR":"18 SPCS","OBJECT_NAME":"BEIDOU 3 IGSO-1","OBJECT_ID":"2019-023A","CENTER_NAME":"EARTH","REF_FRAME":"TEME","TIME_SYSTEM":"UTC","MEAN_ELEMENT_THEORY":"SGP4","EPOCH":"2026-05-12T18:25:31.496160","MEAN_MOTION":"1.00250503","ECCENTRICITY":"0.00238560","INCLINATION":"58.6468","RA_OF_ASC_NODE":"38.0171","ARG_OF_PERICENTER":"234.3090","MEAN_ANOMALY":"349.8662","EPHEMERIS_TYPE":"0","CLASSIFICATION_TYPE":"U","NORAD_CAT_ID":"44204","ELEMENT_SET_NO":"999","REV_AT_EPOCH":"685","BSTAR":"0.00000000000000","MEAN_MOTION_DOT":"-0.00000227","MEAN_MOTION_DDOT":"0.0000000000000","SEMIMAJOR_AXIS":"42170.699","PERIOD":"1436.402","APOAPSIS":"35893.167","PERIAPSIS":"35691.962","OBJECT_TYPE":"PAYLOAD","RCS_SIZE":"LARGE","COUNTRY_CODE":"PRC","LAUNCH_DATE":"2019-04-20","SITE":"XSC","DECAY_DATE":null,"FILE":"5196390","GP_ID":"323322498","TLE_LINE0":"0 BEIDOU 3 IGSO-1","TLE_LINE1":"1 44204U 19023A   26132.76772565 -.00000227  00000-0  00000+0 0  9999","TLE_LINE2":"2 44204  58.6468  38.0171 0023856 234.3090 349.8662  1.00250503  6851"},{"CCSDS_OMM_VERS":"3.0","COMMENT":"GENERATED VIA SPACE-TRACK.ORG API","CREATION_DATE":"2026-05-27T02:28:57","ORIGINATOR":"18 SPCS","OBJECT_NAME":"BEIDOU 3 IGSO-1","OBJECT_ID":"2019-023A","CENTER_NAME":"EARTH","REF_FRAME":"TEME","TIME_SYSTEM":"UTC","MEAN_ELEMENT_THEORY":"SGP4","EPOCH":"2026-05-21T14:49:38.550720","MEAN_MOTION":"1.00299087","ECCENTRICITY":"0.00255460","INCLINATION":"58.6591","RA_OF_ASC_NODE":"37.9235","ARG_OF_PERICENTER":"227.4594","MEAN_ANOMALY":"312.4431","EPHEMERIS_TYPE":"0","CLASSIFICATION_TYPE":"U","NORAD_CAT_ID":"44204","ELEMENT_SET_NO":"999","REV_AT_EPOCH":"694","BSTAR":"0.00000000000000","MEAN_MOTION_DOT":"-0.00000234","MEAN_MOTION_DDOT":"0.0000000000000","SEMIMAJOR_AXIS":"42157.080","PERIOD":"1435.706","APOAPSIS":"35886.639","PERIAPSIS":"35671.250","OBJECT_TYPE":"PAYLOAD","RCS_SIZE":"LARGE","COUNTRY_CODE":"PRC","LAUNCH_DATE":"2019-04-20","SITE":"XSC","DECAY_DATE":null,"FILE":"5214677","GP_ID":"325069247","TLE_LINE0":"0 BEIDOU 3 IGSO-1","TLE_LINE1":"1 44204U 19023A   26141.61780730 -.00000234  00000-0  00000-0 0  9995","TLE_LINE2":"2 44204  58.6591  37.9235 0025546 227.4594 312.4431  1.00299087  6947"},{"CCSDS_OMM_VERS":"3.0","COMMENT":"GENERATED VIA SPACE-TRACK.ORG API","CREATION_DATE":"2026-05-27T07:27:04","ORIGINATOR":"18 SPCS","OBJECT_NAME":"BEIDOU 3 IGSO-1","OBJECT_ID":"2019-023A","CENTER_NAME":"EARTH","REF_FRAME":"TEME","TIME_SYSTEM":"UTC","MEAN_ELEMENT_THEORY":"SGP4","EPOCH":"2026-05-21T14:49:38.550720","MEAN_MOTION":"1.00299087","ECCENTRICITY":"0.00255460","INCLINATION":"58.6591","RA_OF_ASC_NODE":"37.9235","ARG_OF_PERICENTER":"227.4594","MEAN_ANOMALY":"312.4431","EPHEMERIS_TYPE":"0","CLASSIFICATION_TYPE":"U","NORAD_CAT_ID":"44204","ELEMENT_SET_NO":"999","REV_AT_EPOCH":"694","BSTAR":"0.00000000000000","MEAN_MOTION_DOT":"-0.00000234","MEAN_MOTION_DDOT":"0.0000000000000","SEMIMAJOR_AXIS":"42157.080","PERIOD":"1435.706","APOAPSIS":"35886.639","PERIAPSIS":"35671.250","OBJECT_TYPE":"PAYLOAD","RCS_SIZE":"LARGE","COUNTRY_CODE":"PRC","LAUNCH_DATE":"2019-04-20","SITE":"XSC","DECAY_DATE":null,"FILE":"5214943","GP_ID":"325112157","TLE_LINE0":"0 BEIDOU 3 IGSO-1","TLE_LINE1":"1 44204U 19023A   26141.61780730 -.00000234  00000-0  00000+0 0  9994","TLE_LINE2":"2 44204  58.6591  37.9235 0025546 227.4594 312.4431  1.00299087  6947"},{"CCSDS_OMM_VERS":"3.0","COMMENT":"GENERATED VIA SPACE-TRACK.ORG API","CREATION_DATE":"2026-06-04T22:26:23","ORIGINATOR":"18 SPCS","OBJECT_NAME":"BEIDOU 3 IGSO-1","OBJECT_ID":"2019-023A","CENTER_NAME":"EARTH","REF_FRAME":"TEME","TIME_SYSTEM":"UTC","MEAN_ELEMENT_THEORY":"SGP4","EPOCH":"2026-06-04T14:06:37.445760","MEAN_MOTION":"1.00295778","ECCENTRICITY":"0.00254710","INCLINATION":"58.6768","RA_OF_ASC_NODE":"37.7810","ARG_OF_PERICENTER":"225.7549","MEAN_ANOMALY":"318.3782","EPHEMERIS_TYPE":"0","CLASSIFICATION_TYPE":"U","NORAD_CAT_ID":"44204","ELEMENT_SET_NO":"999","REV_AT_EPOCH":"708","BSTAR":"0.00000000000000","MEAN_MOTION_DOT":"-0.00000211","MEAN_MOTION_DDOT":"0.0000000000000","SEMIMAJOR_AXIS":"42158.007","PERIOD":"1435.753","APOAPSIS":"35887.253","PERIAPSIS":"35672.492","OBJECT_TYPE":"PAYLOAD","RCS_SIZE":"LARGE","COUNTRY_CODE":"PRC","LAUNCH_DATE":"2019-04-20","SITE":"XSC","DECAY_DATE":null,"FILE":"5230101","GP_ID":"327122348","TLE_LINE0":"0 BEIDOU 3 IGSO-1","TLE_LINE1":"1 44204U 19023A   26155.58793340 -.00000211  00000-0  00000+0 0  9991","TLE_LINE2":"2 44204  58.6768  37.7810 0025471 225.7549 318.3782  1.00295778  7081"},{"CCSDS_OMM_VERS":"3.0","COMMENT":"GENERATED VIA SPACE-TRACK.ORG API","CREATION_DATE":"2026-06-05T02:58:45","ORIGINATOR":"18 SPCS","OBJECT_NAME":"BEIDOU 3 IGSO-1","OBJECT_ID":"2019-023A","CENTER_NAME":"EARTH","REF_FRAME":"TEME","TIME_SYSTEM":"UTC","MEAN_ELEMENT_THEORY":"SGP4","EPOCH":"2026-06-04T14:06:37.446624","MEAN_MOTION":"1.00295778","ECCENTRICITY":"0.00254705","INCLINATION":"58.6768","RA_OF_ASC_NODE":"37.7810","ARG_OF_PERICENTER":"225.7549","MEAN_ANOMALY":"318.3782","EPHEMERIS_TYPE":"0","CLASSIFICATION_TYPE":"U","NORAD_CAT_ID":"44204","ELEMENT_SET_NO":"999","REV_AT_EPOCH":"708","BSTAR":"0.00000000000000","MEAN_MOTION_DOT":"-0.00000211","MEAN_MOTION_DDOT":"0.0000000000000","SEMIMAJOR_AXIS":"42158.007","PERIOD":"1435.753","APOAPSIS":"35887.251","PERIAPSIS":"35672.494","OBJECT_TYPE":"PAYLOAD","RCS_SIZE":"LARGE","COUNTRY_CODE":"PRC","LAUNCH_DATE":"2019-04-20","SITE":"XSC","DECAY_DATE":null,"FILE":"5230353","GP_ID":"327159944","TLE_LINE0":"0 BEIDOU 3 IGSO-1","TLE_LINE1":"1 44204U 19023A   26155.58793341 -.00000211  00000-0  00000-0 0  9993","TLE_LINE2":"2 44204  58.6768  37.7810 0025471 225.7549 318.3782  1.00295778  7081"},{"CCSDS_OMM_VERS":"3.0","COMMENT":"GENERATED VIA SPACE-TRACK.ORG API","CREATION_DATE":"2026-06-07T03:17:11","ORIGINATOR":"18 SPCS","OBJECT_NAME":"BEIDOU 3 IGSO-1","OBJECT_ID":"2019-023A","CENTER_NAME":"EARTH","REF_FRAME":"TEME","TIME_SYSTEM":"UTC","MEAN_ELEMENT_THEORY":"SGP4","EPOCH":"2026-06-06T22:54:10.040832","MEAN_MOTION":"1.00294902","ECCENTRICITY":"0.00254187","INCLINATION":"58.6799","RA_OF_ASC_NODE":"37.7569","ARG_OF_PERICENTER":"225.7371","MEAN_ANOMALY":"92.8010","EPHEMERIS_TYPE":"0","CLASSIFICATION_TYPE":"U","NORAD_CAT_ID":"44204","ELEMENT_SET_NO":"999","REV_AT_EPOCH":"710","BSTAR":"0.00000000000000","MEAN_MOTION_DOT":"-0.00000215","MEAN_MOTION_DDOT":"0.0000000000000","SEMIMAJOR_AXIS":"42158.253","PERIOD":"1435.766","APOAPSIS":"35887.278","PERIAPSIS":"35672.957","OBJECT_TYPE":"PAYLOAD","RCS_SIZE":"LARGE","COUNTRY_CODE":"PRC","LAUNCH_DATE":"2019-04-20","SITE":"XSC","DECAY_DATE":null,"FILE":"5234182","GP_ID":"327690760","TLE_LINE0":"0 BEIDOU 3 IGSO-1","TLE_LINE1":"1 44204U 19023A   26157.95428288 -.00000215  00000-0  00000-0 0  9995","TLE_LINE2":"2 44204  58.6799  37.7569 0025419 225.7371  92.8010  1.00294902  7100"},{"CCSDS_OMM_VERS":"3.0","COMMENT":"GENERATED VIA SPACE-TRACK.ORG API","CREATION_DATE":"2026-06-09T02:58:40","ORIGINATOR":"18 SPCS","OBJECT_NAME":"BEIDOU 3 IGSO-1","OBJECT_ID":"2019-023A","CENTER_NAME":"EARTH","REF_FRAME":"TEME","TIME_SYSTEM":"UTC","MEAN_ELEMENT_THEORY":"SGP4","EPOCH":"2026-06-06T22:54:10.040832","MEAN_MOTION":"1.00294886","ECCENTRICITY":"0.00254341","INCLINATION":"58.6799","RA_OF_ASC_NODE":"37.7569","ARG_OF_PERICENTER":"225.6649","MEAN_ANOMALY":"92.8731","EPHEMERIS_TYPE":"0","CLASSIFICATION_TYPE":"U","NORAD_CAT_ID":"44204","ELEMENT_SET_NO":"999","REV_AT_EPOCH":"710","BSTAR":"0.00000000000000","MEAN_MOTION_DOT":"-0.00000215","MEAN_MOTION_DDOT":"0.0000000000000","SEMIMAJOR_AXIS":"42158.257","PERIOD":"1435.766","APOAPSIS":"35887.348","PERIAPSIS":"35672.896","OBJECT_TYPE":"PAYLOAD","RCS_SIZE":"LARGE","COUNTRY_CODE":"PRC","LAUNCH_DATE":"2019-04-20","SITE":"XSC","DECAY_DATE":null,"FILE":"5238447","GP_ID":"328191736","TLE_LINE0":"0 BEIDOU 3 IGSO-1","TLE_LINE1":"1 44204U 19023A   26157.95428288 -.00000215  00000-0  00000-0 0  9995","TLE_LINE2":"2 44204  58.6799  37.7569 0025434 225.6649  92.8731  1.00294886  7105"}]